{
  "norad_id": 65958,
  "name": "KUIPER-00129",
  "history": [
    {
      "epoch": "2026-03-28T18:51:53.894016Z",
      "apogee_km": 630.0533990357126,
      "perigee_km": 628.6371868643073,
      "latitude_deg": 5.200746162717866e-06,
      "longitude_deg": 154.48455296284948,
      "height_km": 630.3202164742409,
      "semi_major_axis_km": 7007.48229295001,
      "eccentricity": 0.00010105,
      "inclination_deg": 51.9002,
      "raan_deg": 263.6606,
      "arg_perigee_deg": 108.8992,
      "mean_anomaly_deg": 251.208,
      "mean_motion_rev_day": 14.79993297
    }
  ]
}